{
  "type": "FeatureCollection",
  "features": [
    {
      "type": "Feature",
      "properties": {
        "norad_id": 66432,
        "name": "STARLINK-35446",
        "group": "last-30-days",
        "lat": -9.051715628477897,
        "lon": 61.95228647896284,
        "alt_km": 444.8433787461254,
        "timestamp": "2025-12-08T13:49:30.575684+00:00",
        "meta_object_name": "STARLINK-35446",
        "meta_object_id": "2025-259L",
        "meta_epoch": "2025-12-08T06:00:02.999808",
        "meta_mean_motion": 15.40641317,
        "meta_eccentricity": 9.031e-05,
        "meta_inclination": 43.0007,
        "meta_ra_of_asc_node": 73.6747,
        "meta_arg_of_pericenter": 264.7282,
        "meta_mean_anomaly": 71.6566,
        "meta_ephemeris_type": 0,
        "meta_classification_type": "U",
        "meta_norad_cat_id": 66432,
        "meta_element_set_no": 999,
        "meta_rev_at_epoch": 555,
        "meta_bstar": 0.0016788503,
        "meta_mean_motion_dot": 0.00070337,
        "meta_mean_motion_ddot": 0,
        "tle_line1": "1 66432U 25259L   25342.25003472  .00070337  00000+0  16789-2 0  9995",
        "tle_line2": "2 66432  43.0007  73.6747 0000903 264.7282  71.6566 15.40641317  5552"
      },
      "geometry": {
        "type": "Point",
        "coordinates": [
          61.95228647896284,
          -9.051715628477897
        ]
      }
    },
    {
      "type": "Feature",
      "properties": {
        "norad_id": 66433,
        "name": "STARLINK-35457",
        "group": "last-30-days",
        "lat": -0.6450406656352002,
        "lon": 71.07464182790483,
        "alt_km": 444.2948410974768,
        "timestamp": "2025-12-08T13:49:30.575694+00:00",
        "meta_object_name": "STARLINK-35457",
        "meta_object_id": "2025-259M",
        "meta_epoch": "2025-12-08T06:00:02.999808",
        "meta_mean_motion": 15.40599824,
        "meta_eccentricity": 0.00010964,
        "meta_inclination": 43.0008,
        "meta_ra_of_asc_node": 73.6458,
        "meta_arg_of_pericenter": 242.924,
        "meta_mean_anomaly": 105.8923,
        "meta_ephemeris_type": 0,
        "meta_classification_type": "U",
        "meta_norad_cat_id": 66433,
        "meta_element_set_no": 999,
        "meta_rev_at_epoch": 555,
        "meta_bstar": 0.0025056698,
        "meta_mean_motion_dot": 0.0010547,
        "meta_mean_motion_ddot": 0,
        "tle_line1": "1 66433U 25259M   25342.25003472  .00105470  00000+0  25057-2 0  9991",
        "tle_line2": "2 66433  43.0008  73.6458 0001096 242.9240 105.8923 15.40599824  5551"
      },
      "geometry": {
        "type": "Point",
        "coordinates": [
          71.07464182790483,
          -0.6450406656352002
        ]
      }
    },
    {
      "type": "Feature",
      "properties": {
        "norad_id": 66434,
        "name": "STARLINK-35389",
        "group": "last-30-days",
        "lat": 7.8974466422128735,
        "lon": 80.2980185198764,
        "alt_km": 443.01891084819,
        "timestamp": "2025-12-08T13:49:30.575705+00:00",
        "meta_object_name": "STARLINK-35389",
        "meta_object_id": "2025-259N",
        "meta_epoch": "2025-12-08T06:00:02.999808",
        "meta_mean_motion": 15.42165604,
        "meta_eccentricity": 9.835e-05,
        "meta_inclination": 43.0009,
        "meta_ra_of_asc_node": 73.6186,
        "meta_arg_of_pericenter": 250.5867,
        "meta_mean_anomaly": 109.842,
        "meta_ephemeris_type": 0,
        "meta_classification_type": "U",
        "meta_norad_cat_id": 66434,
        "meta_element_set_no": 999,
        "meta_rev_at_epoch": 555,
        "meta_bstar": -0.051066588,
        "meta_mean_motion_dot": -0.01996035,
        "meta_mean_motion_ddot": 0,
        "tle_line1": "1 66434U 25259N   25342.25003472 -.01996035  00000+0 -51067-1 0  9999",
        "tle_line2": "2 66434  43.0009  73.6186 0000983 250.5867 109.8420 15.42165604  5558"
      },
      "geometry": {
        "type": "Point",
        "coordinates": [
          80.2980185198764,
          7.8974466422128735
        ]
      }
    },
    {
      "type": "Feature",
      "properties": {
        "norad_id": 66435,
        "name": "STARLINK-35502",
        "group": "last-30-days",
        "lat": 15.67115816911336,
        "lon": 89.23059419249041,
        "alt_km": 437.61224540847434,
        "timestamp": "2025-12-08T13:49:30.575715+00:00",
        "meta_object_name": "STARLINK-35502",
        "meta_object_id": "2025-259P",
        "meta_epoch": "2025-12-08T06:00:02.999808",
        "meta_mean_motion": 15.4338624,
        "meta_eccentricity": 0.00010561,
        "meta_inclination": 43.0002,
        "meta_ra_of_asc_node": 73.5944,
        "meta_arg_of_pericenter": 265.629,
        "meta_mean_anomaly": 104.9499,
        "meta_ephemeris_type": 0,
        "meta_classification_type": "U",
        "meta_norad_cat_id": 66435,
        "meta_element_set_no": 999,
        "meta_rev_at_epoch": 555,
        "meta_bstar": -0.041929982,
        "meta_mean_motion_dot": -0.01707096,
        "meta_mean_motion_ddot": 0,
        "tle_line1": "1 66435U 25259P   25342.25003472 -.01707096  00000+0 -41930-1 0  9995",
        "tle_line2": "2 66435  43.0002  73.5944 0001056 265.6290 104.9499 15.43386240  5556"
      },
      "geometry": {
        "type": "Point",
        "coordinates": [
          89.23059419249041,
          15.67115816911336
        ]
      }
    },
    {
      "type": "Feature",
      "properties": {
        "norad_id": 66436,
        "name": "STARLINK-35501",
        "group": "last-30-days",
        "lat": 27.923022386280135,
        "lon": 106.3200385138634,
        "alt_km": 424.04478949032,
        "timestamp": "2025-12-08T13:49:30.575725+00:00",
        "meta_object_name": "STARLINK-35501",
        "meta_object_id": "2025-259Q",
        "meta_epoch": "2025-12-08T07:26:14.662752",
        "meta_mean_motion": 15.46402329,
        "meta_eccentricity": 0.00018785,
        "meta_inclination": 43.0015,
        "meta_ra_of_asc_node": 73.2063,
        "meta_arg_of_pericenter": 288.1493,
        "meta_mean_anomaly": 71.9161,
        "meta_ephemeris_type": 0,
        "meta_classification_type": "U",
        "meta_norad_cat_id": 66436,
        "meta_element_set_no": 999,
        "meta_rev_at_epoch": 548,
        "meta_bstar": -0.0091245188,
        "meta_mean_motion_dot": -0.00437518,
        "meta_mean_motion_ddot": 0,
        "tle_line1": "1 66436U 25259Q   25342.30989193 -.00437518  00000+0 -91245-2 0  9998",
        "tle_line2": "2 66436  43.0015  73.2063 0001878 288.1493  71.9161 15.46402329  5488"
      },
      "geometry": {
        "type": "Point",
        "coordinates": [
          106.3200385138634,
          27.923022386280135
        ]
      }
    },
    {
      "type": "Feature",
      "properties": {
        "norad_id": 66437,
        "name": "STARLINK-35474",
        "group": "last-30-days",
        "lat": 34.63949507152509,
        "lon": 119.46957754029566,
        "alt_km": 407.84119861824365,
        "timestamp": "2025-12-08T13:49:30.575738+00:00",
        "meta_object_name": "STARLINK-35474",
        "meta_object_id": "2025-259R",
        "meta_epoch": "2025-12-07T23:40:04.903104",
        "meta_mean_motion": 15.50351883,
        "meta_eccentricity": 0.00084662,
        "meta_inclination": 43.0038,
        "meta_ra_of_asc_node": 75.0774,
        "meta_arg_of_pericenter": 342.1937,
        "meta_mean_anomaly": 17.8626,
        "meta_ephemeris_type": 0,
        "meta_classification_type": "U",
        "meta_norad_cat_id": 66437,
        "meta_element_set_no": 999,
        "meta_rev_at_epoch": 543,
        "meta_bstar": 0.0021057773,
        "meta_mean_motion_dot": 0.00124312,
        "meta_mean_motion_ddot": 0,
        "tle_line1": "1 66437U 25259R   25341.98616786  .00124312  00000+0  21058-2 0  9995",
        "tle_line2": "2 66437  43.0038  75.0774 0008466 342.1937  17.8626 15.50351883  5430"
      },
      "geometry": {
        "type": "Point",
        "coordinates": [
          119.46957754029566,
          34.63949507152509
        ]
      }
    },
    {
      "type": "Feature",
      "properties": {
        "norad_id": 66438,
        "name": "STARLINK-34681",
        "group": "last-30-days",
        "lat": 36.20951458408011,
        "lon": 123.40633572670642,
        "alt_km": 409.6242674812511,
        "timestamp": "2025-12-08T13:49:30.575748+00:00",
        "meta_object_name": "STARLINK-34681",
        "meta_object_id": "2025-259S",
        "meta_epoch": "2025-12-07T23:39:13.067424",
        "meta_mean_motion": 15.5049474,
        "meta_eccentricity": 0.00027185,
        "meta_inclination": 42.9984,
        "meta_ra_of_asc_node": 75.0723,
        "meta_arg_of_pericenter": 311.9192,
        "meta_mean_anomaly": 48.1436,
        "meta_ephemeris_type": 0,
        "meta_classification_type": "U",
        "meta_norad_cat_id": 66438,
        "meta_element_set_no": 999,
        "meta_rev_at_epoch": 532,
        "meta_bstar": 0.0016901486,
        "meta_mean_motion_dot": 0.00099791,
        "meta_mean_motion_ddot": 0,
        "tle_line1": "1 66438U 25259S   25341.98556791  .00099791  00000+0  16901-2 0  9998",
        "tle_line2": "2 66438  42.9984  75.0723 0002718 311.9192  48.1436 15.50494740  5328"
      },
      "geometry": {
        "type": "Point",
        "coordinates": [
          123.40633572670642,
          36.20951458408011
        ]
      }
    }
  ]
}